COMMENT,ORIGINATOR,NORAD_CAT_ID,OBJECT_NAME,OBJECT_TYPE,CLASSIFICATION_TYPE,INTLDES,EPOCH,EPOCH_MICROSECONDS,MEAN_MOTION,ECCENTRICITY,INCLINATION,RA_OF_ASC_NODE,ARG_OF_PERICENTER,MEAN_ANOMALY,EPHEMERIS_TYPE,ELEMENT_SET_NO,REV_AT_EPOCH,BSTAR,MEAN_MOTION_DOT,MEAN_MOTION_DDOT,FILE,TLE_LINE0,TLE_LINE1,TLE_LINE2,OBJECT_ID,OBJECT_NUMBER,SEMIMAJOR_AXIS,PERIOD,APOGEE,PERIGEE,DECAYED,date
GENERATED VIA SPACETRACK.ORG API,18 SPCS,48883,SPACEBEE-100,PAYLOAD,U,21059E,2023/3/22 21:24,361344,15.25752293,0.0008113,97.5821,217.0187,214.1091,145.9626,0,999,9620,0.0015368,0.00039352,0,3868101,0 SPACEBEE-100,1 48883U 21059E   23081.89215696  .00039352  00000-0  15368-2 0  9995,2 48883  97.5821 217.0187 0008113 214.1091 145.9626 15.25752293 96203,2021-059E,48883,6866.664,94.38,494.1,482.958,0,
GENERATED VIA SPACETRACK.ORG API,18 SPCS,48883,SPACEBEE-100,PAYLOAD,U,21059E,2023/3/22 21:24,361344,15.25752293,0.0008113,97.5821,217.0187,214.1091,145.9626,0,999,9620,0.0015368,0.00039352,0,3868201,0 SPACEBEE-100,1 48883U 21059E   23081.89215696  .00039352  00000-0  15368-2 0  9995,2 48883  97.5821 217.0187 0008113 214.1091 145.9626 15.25752293 96203,2021-059E,48883,6866.664,94.38,494.1,482.958,0,
GENERATED VIA SPACETRACK.ORG API,18 SPCS,48883,SPACEBEE-100,PAYLOAD,U,21059E,2023/3/23 8:25,754976,15.25785255,0.0008118,97.5821,217.4841,212.6953,147.3783,0,999,9627,0.001367,0.0003501,0,3868494,0 SPACEBEE-100,1 48883U 21059E   23082.35123559  .00035010  00000-0  13670-2 0  9994,2 48883  97.5821 217.4841 0008118 212.6953 147.3783 15.25785255 96270,2021-059E,48883,6866.565,94.378,494.005,482.856,0,
GENERATED VIA SPACETRACK.ORG API,18 SPCS,48883,SPACEBEE-100,PAYLOAD,U,21059E,2023/3/23 21:01,108032,15.25846776,0.0008118,97.582,218.016,211.1441,148.9317,0,999,9635,0.0021095,0.00054306,0,3868673,0 SPACEBEE-100,1 48883U 21059E   23082.87588088  .00054306  00000-0  21095-2 0  9992,2 48883  97.5820 218.0160 0008118 211.1441 148.9317 15.25846776 96351,2021-059E,48883,6866.381,94.374,493.82,482.672,0,
GENERATED VIA SPACETRACK.ORG API,18 SPCS,48883,SPACEBEE-100,PAYLOAD,U,21059E,2023/3/24 6:27,771744,15.25948159,0.0008087,97.582,218.4149,210.0267,150.0508,0,999,9641,0.0049354,0.00128817,0,3869310,0 SPACEBEE-100,1 48883U 21059E   23083.26934921  .00128817  00000-0  49354-2 0  9994,2 48883  97.5820 218.4149 0008087 210.0267 150.0508 15.25948159 96412,2021-059E,48883,6866.077,94.368,493.494,482.389,0,
GENERATED VIA SPACETRACK.ORG API,18 SPCS,48883,SPACEBEE-100,PAYLOAD,U,21059E,2023/3/24 8:02,523456,15.25964238,0.0008085,97.582,218.4815,209.8032,150.2747,0,999,9642,0.0051808,0.0013541,0,3869846,0 SPACEBEE-100,1 48883U 21059E   23083.33492504  .00135410  00000-0  51808-2 0  9992,2 48883  97.5820 218.4815 0008085 209.8032 150.2747 15.25964238 96420,2021-059E,48883,6866.029,94.367,493.445,482.342,0,
GENERATED VIA SPACETRACK.ORG API,18 SPCS,48883,SPACEBEE-100,PAYLOAD,U,21059E,2023/3/24 20:37,422240,15.25963534,0.0008,97.5824,219.0139,208.7696,151.3102,0,999,9650,0.0016149,0.0004163,0,3869991,0 SPACEBEE-100,1 48883U 21059E   23083.85953035  .00041630  00000-0  16149-2 0  9999,2 48883  97.5824 219.0139 0008000 208.7696 151.3102 15.25963534 96505,2021-059E,48883,6866.031,94.367,493.388,482.403,0,
GENERATED VIA SPACETRACK.ORG API,18 SPCS,48883,SPACEBEE-100,PAYLOAD,U,21059E,2023/3/24 22:12,49536,15.25967444,0.000798,97.5822,219.0799,208.6112,151.4689,0,999,9651,0.0017705,0.00045679,0,3870109,0 SPACEBEE-100,1 48883U 21059E   23083.92510474  .00045679  00000-0  17705-2 0  9999,2 48883  97.5822 219.0799 0007980 208.6112 151.4689 15.25967444 96519,2021-059E,48883,6866.019,94.366,493.363,482.405,0,
GENERATED VIA SPACETRACK.ORG API,18 SPCS,48883,SPACEBEE-100,PAYLOAD,U,21059E,2023/3/25 21:48,536064,15.26056346,0.0007899,97.5823,220.0779,205.0273,155.0583,0,999,9666,0.0017048,0.00044088,0,3871104,0 SPACEBEE-100,1 48883U 21059E   23084.90868676  .00044088  00000-0  17048-2 0  9991,2 48883  97.5823 220.0779 0007899 205.0273 155.0583 15.26056346 96668,2021-059E,48883,6865.752,94.361,493.041,482.194,0,
GENERATED VIA SPACETRACK.ORG API,18 SPCS,48883,SPACEBEE-100,PAYLOAD,U,21059E,2023/3/26 4:06,478816,15.26076481,0.0008011,97.5825,220.3441,203.6599,156.4271,0,999,9670,0.0015652,0.00040478,0,3871309,0 SPACEBEE-100,1 48883U 21059E   23085.17096619  .00040478  00000-0  15652-2 0  9999,2 48883  97.5825 220.3441 0008011 203.6599 156.4271 15.26076481 96707,2021-059E,48883,6865.692,94.36,493.057,482.057,0,
GENERATED VIA SPACETRACK.ORG API,18 SPCS,48883,SPACEBEE-100,PAYLOAD,U,21059E,2023/3/26 21:24,675808,15.26128809,0.0007965,97.5826,221.076,201.3184,158.7723,0,999,9681,0.0013629,0.00035267,0,3871964,0 SPACEBEE-100,1 48883U 21059E   23085.89221847  .00035267  00000-0  13629-2 0  9993,2 48883  97.5826 221.0760 0007965 201.3184 158.7723 15.26128809 96813,2021-059E,48883,6865.535,94.356,492.868,481.932,0,
GENERATED VIA SPACETRACK.ORG API,18 SPCS,48883,SPACEBEE-100,PAYLOAD,U,21059E,2023/3/27 8:25,233664,15.26164917,0.0008089,97.5824,221.5412,199.6519,160.4408,0,999,9688,0.0014563,0.00037744,0,3872466,0 SPACEBEE-100,1 48883U 21059E   23086.35118326  .00037744  00000-0  14563-2 0  9992,2 48883  97.5824 221.5412 0008089 199.6519 160.4408 15.26164917 96886,2021-059E,48883,6865.427,94.354,492.845,481.738,0,
GENERATED VIA SPACETRACK.ORG API,18 SPCS,48883,SPACEBEE-100,PAYLOAD,U,21059E,2023/3/27 14:43,582336,15.26183784,0.0008101,97.5823,221.8073,198.7776,161.3165,0,999,9692,0.0014117,0.00036601,0,3872569,0 SPACEBEE-100,1 48883U 21059E   23086.61344424  .00036601  00000-0  14117-2 0  9997,2 48883  97.5823 221.8073 0008101 198.7776 161.3165 15.26183784 96929,2021-059E,48883,6865.37,94.353,492.797,481.673,0,
GENERATED VIA SPACETRACK.ORG API,18 SPCS,48883,SPACEBEE-100,PAYLOAD,U,21059E,2023/3/27 21:01,663168,15.26203295,0.0008051,97.5825,222.0733,198.3007,161.7943,0,999,9696,0.001362,0.00035324,0,3872915,0 SPACEBEE-100,1 48883U 21059E   23086.87570212  .00035324  00000-0  13620-2 0  9990,2 48883  97.5825 222.0733 0008051 198.3007 161.7943 15.26203295 96966,2021-059E,48883,6865.312,94.352,492.704,481.649,0,
GENERATED VIA SPACETRACK.ORG API,18 SPCS,48883,SPACEBEE-100,PAYLOAD,U,21059E,2023/3/28 8:01,283936,15.26240309,0.0008108,97.5824,222.5392,197.1407,162.9559,0,999,9703,0.0014905,0.00038725,0,3873565,0 SPACEBEE-100,1 48883U 21059E   23087.33464449  .00038725  00000-0  14905-2 0  9991,2 48883  97.5824 222.5392 0008108 197.1407 162.9559 15.26240309 97037,2021-059E,48883,6865.201,94.349,492.632,481.499,0,
GENERATED VIA SPACETRACK.ORG API,18 SPCS,48883,SPACEBEE-100,PAYLOAD,U,21059E,2023/3/28 20:37,357312,15.26287373,0.0008098,97.5823,223.0714,195.418,164.6813,0,999,9711,0.0016585,0.00043185,0,3873921,0 SPACEBEE-100,1 48883U 21059E   23087.85913608  .00043185  00000-0  16585-2 0  9996,2 48883  97.5823 223.0714 0008098 195.4180 164.6813 15.26287373 97110,2021-059E,48883,6865.059,94.347,492.484,481.365,0,
GENERATED VIA SPACETRACK.ORG API,18 SPCS,48883,SPACEBEE-100,PAYLOAD,U,21059E,2023/3/28 22:11,775872,15.26292399,0.0008107,97.5822,223.1379,195.1276,164.9721,0,999,9712,0.0016455,0.0004285,0,3873806,0 SPACEBEE-100,1 48883U 21059E   23087.92469648  .00042850  00000-0  16455-2 0  9998,2 48883  97.5822 223.1379 0008107 195.1276 164.9721 15.26292399 97127,2021-059E,48883,6865.044,94.346,492.475,481.344,0,
GENERATED VIA SPACETRACK.ORG API,18 SPCS,48883,SPACEBEE-100,PAYLOAD,U,21059E,2023/3/29 7:37,795616,15.26327826,0.000811,97.5821,223.537,193.7515,166.3504,0,999,9718,0.0016871,0.00043989,0,3874492,0 SPACEBEE-100,1 48883U 21059E   23088.31805319  .00043989  00000-0  16871-2 0  9997,2 48883  97.5821 223.5370 0008110 193.7515 166.3504 15.26327826 97180,2021-059E,48883,6864.938,94.344,492.371,481.236,0,
GENERATED VIA SPACETRACK.ORG API,18 SPCS,48883,SPACEBEE-100,PAYLOAD,U,21059E,2023/3/29 20:13,291680,15.26375397,0.0008081,97.5823,224.0693,191.7347,168.3703,0,999,9726,0.0016997,0.00044384,0,3874790,0 SPACEBEE-100,1 48883U 21059E   23088.84251495  .00044384  00000-0  16997-2 0  9994,2 48883  97.5823 224.0693 0008081 191.7347 168.3703 15.26375397 97262,2021-059E,48883,6864.795,94.341,492.208,481.113,0,
GENERATED VIA SPACETRACK.ORG API,18 SPCS,48883,SPACEBEE-100,PAYLOAD,U,21059E,2023/3/30 8:48,358688,15.26424022,0.0008061,97.5822,224.6016,189.713,170.3954,0,999,9734,0.0017639,0.00046141,0,3875310,0 SPACEBEE-100,1 48883U 21059E   23089.36696017  .00046141  00000-0  17639-2 0  9992,2 48883  97.5822 224.6016 0008061 189.7130 170.3954 15.26424022 97341,2021-059E,48883,6864.65,94.338,492.048,480.981,0,
GENERATED VIA SPACETRACK.ORG API,18 SPCS,48883,SPACEBEE-100,PAYLOAD,U,21059E,2023/3/30 8:48,358688,15.26424022,0.0008061,97.5822,224.6016,189.713,170.3954,0,999,9734,0.0017639,0.00046141,0,3875726,0 SPACEBEE-100,1 48883U 21059E   23089.36696017  .00046141  00000-0  17639-2 0  9992,2 48883  97.5822 224.6016 0008061 189.7130 170.3954 15.26424022 97341,2021-059E,48883,6864.65,94.338,492.048,480.981,0,
GENERATED VIA SPACETRACK.ORG API,18 SPCS,48883,SPACEBEE-100,PAYLOAD,U,21059E,2023/3/31 19:25,898720,15.26563756,0.0007963,97.5822,226.0657,185.3785,174.7369,0,999,9756,0.0018567,0.00048794,0,3876554,0 SPACEBEE-100,1 48883U 21059E   23090.80909605  .00048794  00000-0  18567-2 0  9990,2 48883  97.5822 226.0657 0007963 185.3785 174.7369 15.26563756 97566,2021-059E,48883,6864.231,94.33,491.562,480.63,0,
GENERATED VIA SPACETRACK.ORG API,18 SPCS,48883,SPACEBEE-100,PAYLOAD,U,21059E,2023/4/1 14:17,349728,15.26625155,0.0007986,97.5821,226.8639,183.1867,176.9322,0,999,9768,0.0015656,0.00041166,0,3877146,0 SPACEBEE-100,1 48883U 21059E   23091.59566377  .00041166  00000-0  15656-2 0  9994,2 48883  97.5821 226.8639 0007986 183.1867 176.9322 15.26625155 97683,2021-059E,48883,6864.047,94.326,491.393,480.43,0,
